STARLINK-36739          
1 67802U 26032F   26062.57606351  .00296707  00000+0  14889-2 0  9997
2 67802  97.2840 248.8023 0002143 111.8588 248.2908 15.80944584  3828
STARLINK-36768          
1 67803U 26032G   26062.58336806 -.00047145  00000+0 -31649-3 0  9990
2 67803  97.2837 248.7917 0001480  86.2647 270.6314 15.75222944  3799
STARLINK-36792          
1 67804U 26032H   26062.58336806 -.00056978  00000+0 -38192-3 0  9995
2 67804  97.2836 248.7850 0001677  60.7359 282.0305 15.75295090  3733
STARLINK-36782          
1 67805U 26032J   26062.57434033  .00299053  00000+0  15006-2 0  9995
2 67805  97.2838 248.8040 0001961 103.3287 256.8200 15.80939993  3824
STARLINK-36389          
1 67806U 26032K   26062.58336806 -.00240368  00000+0 -16465-2 0  9993
2 67806  97.2838 248.8115 0001644  84.5520 322.2971 15.75325317  3798
STARLINK-36382          
1 67807U 26032L   26062.58336806 -.01905520  00000+0 -13513-1 0  9993
2 67807  97.2840 248.8158 0001829  67.7389 349.7178 15.77042308  3735
STARLINK-36811          
1 67808U 26032M   26062.57103029  .00275819  00000+0  13879-2 0  9996
2 67808  97.2833 248.8081 0001905 103.1783 256.9698 15.80938300  3827
STARLINK-36795          
1 67809U 26032N   26062.58336806 -.00038447  00000+0 -25773-3 0  9992
2 67809  97.2838 248.8002 0001540  81.5744 297.3234 15.75217982  3798
STARLINK-36807          
1 67810U 26032P   26062.56897054  .00277842  00000+0  13983-2 0  9990
2 67810  97.2832 248.8097 0001720  94.3058 265.8407 15.80930110  3825
STARLINK-36733          
1 67811U 26032Q   26062.56772879  .00255398  00000+0  12896-2 0  9992
2 67811  97.2831 248.8112 0001192  80.4691 279.6712 15.80914875  3827
STARLINK-36377          
1 67812U 26032R   26062.56455474  .00265272  00000+0  13368-2 0  9999
2 67812  97.2830 248.8158 0001848  98.9655 261.1822 15.80933177  3823
STARLINK-36732          
1 67813U 26032S   26062.56552717  .00299217  00000+0  15016-2 0  9996
2 67813  97.2833 248.8131 0001816  98.7177 261.4297 15.80937069  3823
STARLINK-36767          
1 67814U 26032T   26062.58336806  .00008391  00000+0  57067-4 0  9993
2 67814  97.2837 248.8060 0001634  76.7083 320.1887 15.75191709  3790
STARLINK-36797          
1 67815U 26032U   26062.58336806 -.00107198  00000+0 -72483-3 0  9999
2 67815  97.2844 248.8269 0001151  87.0805 359.7931 15.75255206  3736
STARLINK-36343          
1 67816U 26032V   26062.62522432  .00270138  00000+0  13608-2 0  9993
2 67816  97.2836 248.8847 0001856  69.8064 290.3404 15.80928521  3836
STARLINK-36756          
1 67817U 26032W   26062.58336806 -.01720439  00000+0 -12289-1 0  9997
2 67817  97.2843 248.8476 0001751  64.0045  72.0329 15.76557546  3799
