[{"OBJECT_NAME":"STARLINK-36739","OBJECT_ID":"2026-032F","EPOCH":"2026-03-03T13:49:31.887264","MEAN_MOTION":15.80944584,"ECCENTRICITY":0.00021438,"INCLINATION":97.284,"RA_OF_ASC_NODE":248.8023,"ARG_OF_PERICENTER":111.8588,"MEAN_ANOMALY":248.2908,"EPHEMERIS_TYPE":0,"CLASSIFICATION_TYPE":"U","NORAD_CAT_ID":67802,"ELEMENT_SET_NO":999,"REV_AT_EPOCH":382,"BSTAR":0.0014888928,"MEAN_MOTION_DOT":0.00296707,"MEAN_MOTION_DDOT":0},{"OBJECT_NAME":"STARLINK-36768","OBJECT_ID":"2026-032G","EPOCH":"2026-03-03T14:00:03.000384","MEAN_MOTION":15.75222944,"ECCENTRICITY":0.00014804,"INCLINATION":97.2837,"RA_OF_ASC_NODE":248.7917,"ARG_OF_PERICENTER":86.2647,"MEAN_ANOMALY":270.6314,"EPHEMERIS_TYPE":0,"CLASSIFICATION_TYPE":"U","NORAD_CAT_ID":67803,"ELEMENT_SET_NO":999,"REV_AT_EPOCH":379,"BSTAR":-0.00031649222,"MEAN_MOTION_DOT":-0.00047145,"MEAN_MOTION_DDOT":0},{"OBJECT_NAME":"STARLINK-36792","OBJECT_ID":"2026-032H","EPOCH":"2026-03-03T14:00:03.000384","MEAN_MOTION":15.7529509,"ECCENTRICITY":0.00016777,"INCLINATION":97.2836,"RA_OF_ASC_NODE":248.785,"ARG_OF_PERICENTER":60.7359,"MEAN_ANOMALY":282.0305,"EPHEMERIS_TYPE":0,"CLASSIFICATION_TYPE":"U","NORAD_CAT_ID":67804,"ELEMENT_SET_NO":999,"REV_AT_EPOCH":373,"BSTAR":-0.00038192175,"MEAN_MOTION_DOT":-0.00056978,"MEAN_MOTION_DDOT":0},{"OBJECT_NAME":"STARLINK-36782","OBJECT_ID":"2026-032J","EPOCH":"2026-03-03T13:47:03.004512","MEAN_MOTION":15.80939993,"ECCENTRICITY":0.00019612,"INCLINATION":97.2838,"RA_OF_ASC_NODE":248.804,"ARG_OF_PERICENTER":103.3287,"MEAN_ANOMALY":256.82,"EPHEMERIS_TYPE":0,"CLASSIFICATION_TYPE":"U","NORAD_CAT_ID":67805,"ELEMENT_SET_NO":999,"REV_AT_EPOCH":382,"BSTAR":0.0015005781,"MEAN_MOTION_DOT":0.00299053,"MEAN_MOTION_DDOT":0},{"OBJECT_NAME":"STARLINK-36389","OBJECT_ID":"2026-032K","EPOCH":"2026-03-03T14:00:03.000384","MEAN_MOTION":15.75325317,"ECCENTRICITY":0.00016446,"INCLINATION":97.2838,"RA_OF_ASC_NODE":248.8115,"ARG_OF_PERICENTER":84.552,"MEAN_ANOMALY":322.2971,"EPHEMERIS_TYPE":0,"CLASSIFICATION_TYPE":"U","NORAD_CAT_ID":67806,"ELEMENT_SET_NO":999,"REV_AT_EPOCH":379,"BSTAR":-0.0016465437,"MEAN_MOTION_DOT":-0.00240368,"MEAN_MOTION_DDOT":0},{"OBJECT_NAME":"STARLINK-36382","OBJECT_ID":"2026-032L","EPOCH":"2026-03-03T14:00:03.000384","MEAN_MOTION":15.77042308,"ECCENTRICITY":0.00018297,"INCLINATION":97.284,"RA_OF_ASC_NODE":248.8158,"ARG_OF_PERICENTER":67.7389,"MEAN_ANOMALY":349.7178,"EPHEMERIS_TYPE":0,"CLASSIFICATION_TYPE":"U","NORAD_CAT_ID":67807,"ELEMENT_SET_NO":999,"REV_AT_EPOCH":373,"BSTAR":-0.013513097,"MEAN_MOTION_DOT":-0.0190552,"MEAN_MOTION_DDOT":0},{"OBJECT_NAME":"STARLINK-36811","OBJECT_ID":"2026-032M","EPOCH":"2026-03-03T13:42:17.017056","MEAN_MOTION":15.809383,"ECCENTRICITY":0.00019057,"INCLINATION":97.2833,"RA_OF_ASC_NODE":248.8081,"ARG_OF_PERICENTER":103.1783,"MEAN_ANOMALY":256.9698,"EPHEMERIS_TYPE":0,"CLASSIFICATION_TYPE":"U","NORAD_CAT_ID":67808,"ELEMENT_SET_NO":999,"REV_AT_EPOCH":382,"BSTAR":0.0013878802,"MEAN_MOTION_DOT":0.00275819,"MEAN_MOTION_DDOT":0},{"OBJECT_NAME":"STARLINK-36795","OBJECT_ID":"2026-032N","EPOCH":"2026-03-03T14:00:03.000384","MEAN_MOTION":15.75217982,"ECCENTRICITY":0.00015401,"INCLINATION":97.2838,"RA_OF_ASC_NODE":248.8002,"ARG_OF_PERICENTER":81.5744,"MEAN_ANOMALY":297.3234,"EPHEMERIS_TYPE":0,"CLASSIFICATION_TYPE":"U","NORAD_CAT_ID":67809,"ELEMENT_SET_NO":999,"REV_AT_EPOCH":379,"BSTAR":-0.00025773311,"MEAN_MOTION_DOT":-0.00038447,"MEAN_MOTION_DDOT":0},{"OBJECT_NAME":"STARLINK-36807","OBJECT_ID":"2026-032P","EPOCH":"2026-03-03T13:39:19.054656","MEAN_MOTION":15.8093011,"ECCENTRICITY":0.00017207,"INCLINATION":97.2832,"RA_OF_ASC_NODE":248.8097,"ARG_OF_PERICENTER":94.3058,"MEAN_ANOMALY":265.8407,"EPHEMERIS_TYPE":0,"CLASSIFICATION_TYPE":"U","NORAD_CAT_ID":67810,"ELEMENT_SET_NO":999,"REV_AT_EPOCH":382,"BSTAR":0.0013982607,"MEAN_MOTION_DOT":0.00277842,"MEAN_MOTION_DDOT":0},{"OBJECT_NAME":"STARLINK-36733","OBJECT_ID":"2026-032Q","EPOCH":"2026-03-03T13:37:31.767456","MEAN_MOTION":15.80914875,"ECCENTRICITY":0.00011924,"INCLINATION":97.2831,"RA_OF_ASC_NODE":248.8112,"ARG_OF_PERICENTER":80.4691,"MEAN_ANOMALY":279.6712,"EPHEMERIS_TYPE":0,"CLASSIFICATION_TYPE":"U","NORAD_CAT_ID":67811,"ELEMENT_SET_NO":999,"REV_AT_EPOCH":382,"BSTAR":0.0012896072,"MEAN_MOTION_DOT":0.00255398,"MEAN_MOTION_DDOT":0},{"OBJECT_NAME":"STARLINK-36377","OBJECT_ID":"2026-032R","EPOCH":"2026-03-03T13:32:57.529536","MEAN_MOTION":15.80933177,"ECCENTRICITY":0.00018484,"INCLINATION":97.283,"RA_OF_ASC_NODE":248.8158,"ARG_OF_PERICENTER":98.9655,"MEAN_ANOMALY":261.1822,"EPHEMERIS_TYPE":0,"CLASSIFICATION_TYPE":"U","NORAD_CAT_ID":67812,"ELEMENT_SET_NO":999,"REV_AT_EPOCH":382,"BSTAR":0.0013367825,"MEAN_MOTION_DOT":0.00265272,"MEAN_MOTION_DDOT":0},{"OBJECT_NAME":"STARLINK-36732","OBJECT_ID":"2026-032S","EPOCH":"2026-03-03T13:34:21.547488","MEAN_MOTION":15.80937069,"ECCENTRICITY":0.00018162,"INCLINATION":97.2833,"RA_OF_ASC_NODE":248.8131,"ARG_OF_PERICENTER":98.7177,"MEAN_ANOMALY":261.4297,"EPHEMERIS_TYPE":0,"CLASSIFICATION_TYPE":"U","NORAD_CAT_ID":67813,"ELEMENT_SET_NO":999,"REV_AT_EPOCH":382,"BSTAR":0.0015015774,"MEAN_MOTION_DOT":0.00299217,"MEAN_MOTION_DDOT":0},{"OBJECT_NAME":"STARLINK-36767","OBJECT_ID":"2026-032T","EPOCH":"2026-03-03T14:00:03.000384","MEAN_MOTION":15.75191709,"ECCENTRICITY":0.0001634,"INCLINATION":97.2837,"RA_OF_ASC_NODE":248.806,"ARG_OF_PERICENTER":76.7083,"MEAN_ANOMALY":320.1887,"EPHEMERIS_TYPE":0,"CLASSIFICATION_TYPE":"U","NORAD_CAT_ID":67814,"ELEMENT_SET_NO":999,"REV_AT_EPOCH":379,"BSTAR":5.7066997e-5,"MEAN_MOTION_DOT":8.391e-5,"MEAN_MOTION_DDOT":0},{"OBJECT_NAME":"STARLINK-36797","OBJECT_ID":"2026-032U","EPOCH":"2026-03-03T14:00:03.000384","MEAN_MOTION":15.75255206,"ECCENTRICITY":0.00011512,"INCLINATION":97.2844,"RA_OF_ASC_NODE":248.8269,"ARG_OF_PERICENTER":87.0805,"MEAN_ANOMALY":359.7931,"EPHEMERIS_TYPE":0,"CLASSIFICATION_TYPE":"U","NORAD_CAT_ID":67815,"ELEMENT_SET_NO":999,"REV_AT_EPOCH":373,"BSTAR":-0.00072482825,"MEAN_MOTION_DOT":-0.00107198,"MEAN_MOTION_DDOT":0},{"OBJECT_NAME":"STARLINK-36343","OBJECT_ID":"2026-032V","EPOCH":"2026-03-03T15:00:19.381248","MEAN_MOTION":15.80928521,"ECCENTRICITY":0.00018563,"INCLINATION":97.2836,"RA_OF_ASC_NODE":248.8847,"ARG_OF_PERICENTER":69.8064,"MEAN_ANOMALY":290.3404,"EPHEMERIS_TYPE":0,"CLASSIFICATION_TYPE":"U","NORAD_CAT_ID":67816,"ELEMENT_SET_NO":999,"REV_AT_EPOCH":383,"BSTAR":0.00136081,"MEAN_MOTION_DOT":0.00270138,"MEAN_MOTION_DDOT":0},{"OBJECT_NAME":"STARLINK-36756","OBJECT_ID":"2026-032W","EPOCH":"2026-03-03T14:00:03.000384","MEAN_MOTION":15.76557546,"ECCENTRICITY":0.00017519,"INCLINATION":97.2843,"RA_OF_ASC_NODE":248.8476,"ARG_OF_PERICENTER":64.0045,"MEAN_ANOMALY":72.0329,"EPHEMERIS_TYPE":0,"CLASSIFICATION_TYPE":"U","NORAD_CAT_ID":67817,"ELEMENT_SET_NO":999,"REV_AT_EPOCH":379,"BSTAR":-0.012288904,"MEAN_MOTION_DOT":-0.01720439,"MEAN_MOTION_DDOT":0}]
